[{"OBJECT_NAME":"TEIKYOSAT-4 (OORURI)","OBJECT_ID":"2021-102B","EPOCH":"2026-03-09T16:12:29.535840","MEAN_MOTION":15.09119208,"ECCENTRICITY":0.00103447,"INCLINATION":97.3797,"RA_OF_ASC_NODE":101.9931,"ARG_OF_PERICENTER":276.5421,"MEAN_ANOMALY":83.463,"EPHEMERIS_TYPE":0,"CLASSIFICATION_TYPE":"U","NORAD_CAT_ID":49396,"ELEMENT_SET_NO":999,"REV_AT_EPOCH":23771,"BSTAR":0.00015739844,"MEAN_MOTION_DOT":2.438e-5,"MEAN_MOTION_DDOT":0},{"OBJECT_NAME":"STARLINK-35328","OBJECT_ID":"2025-211A","EPOCH":"2026-03-09T17:24:01.537056","MEAN_MOTION":15.05684601,"ECCENTRICITY":0.0001043,"INCLINATION":97.6041,"RA_OF_ASC_NODE":114.0452,"ARG_OF_PERICENTER":76.5947,"MEAN_ANOMALY":283.5396,"EPHEMERIS_TYPE":0,"CLASSIFICATION_TYPE":"U","NORAD_CAT_ID":65652,"ELEMENT_SET_NO":999,"REV_AT_EPOCH":2704,"BSTAR":0.00096051781,"MEAN_MOTION_DOT":0.00013838,"MEAN_MOTION_DDOT":0}]
